GPS BIIR-2  (PRN 13)    
1 24876U 97035A   26094.41177889  .00000015  00000+0  00000+0 0  9991
2 24876  55.9542 101.4579 0098969  56.1420 304.8226  2.00564009210470
GPS BIIR-5  (PRN 22)    
1 26407U 00040A   26095.50146484  .00000007  00000+0  00000+0 0  9992
2 26407  54.8674 218.0478 0122122 302.5101  59.1336  2.00569363188498
GPS BIIR-8  (PRN 16)    
1 27663U 03005A   26095.32712677  .00000007  00000+0  00000+0 0  9994
2 27663  54.8987 217.8623 0148454  52.8923 318.3429  2.00564575169854
GPS BIIR-11 (PRN 19)    
1 28190U 04009A   26093.34366605 -.00000035  00000+0  00000+0 0  9993
2 28190  54.8926 278.7093 0112444 169.9755   4.1137  2.00557195161446
GPS BIIR-13 (PRN 02)    
1 28474U 04045A   26094.75587869 -.00000085  00000+0  00000+0 0  9996
2 28474  55.1773 327.8549 0170351 314.0213 224.9150  2.00575086156956
GPS BIIRM-1 (PRN 17)    
1 28874U 05038A   26095.56026372 -.00000016  00000+0  00000+0 0  9994
2 28874  54.9385 276.1066 0128064 295.7133  64.2611  2.00570861150380
GPS BIIRM-2 (PRN 31)    
1 29486U 06042A   26095.22099612  .00000023  00000+0  00000+0 0  9997
2 29486  54.6997 154.2366 0106277  53.2094 319.1647  2.00573913142934
GPS BIIRM-3 (PRN 12)    
1 29601U 06052A   26094.62595818  .00000004  00000+0  00000+0 0  9998
2 29601  54.9494 216.9209 0087080  89.9254 271.0540  2.00553820141936
GPS BIIRM-4 (PRN 15)    
1 32260U 07047A   26094.93149622 -.00000013  00000+0  00000+0 0  9991
2 32260  54.0414  83.0831 0164095  86.2491 275.6217  2.00559152135346
GPS BIIRM-5 (PRN 29)    
1 32384U 07062A   26095.00291115 -.00000022  00000+0  00000+0 0  9999
2 32384  55.0910 277.0926 0033911 161.3571  17.5151  2.00555625134048
GPS BIIRM-6 (PRN 07)    
1 32711U 08012A   26095.34686863  .00000022  00000+0  00000+0 0  9993
2 32711  54.4849 152.8355 0208740 246.7478 111.1181  2.00570393132298
GPS BIIRM-8 (PRN 05)    
1 35752U 09043A   26095.57345762 -.00000087  00000+0  00000+0 0  9993
2 35752  56.1679  30.3043 0052474  80.9328  97.1530  2.00558500121906
GPS BIIF-1  (PRN 25)    
1 36585U 10022A   26095.16725920  .00000006  00000+0  00000+0 0  9990
2 36585  54.2820 211.5026 0126957  66.0332 295.6559  2.00558893116130
GPS BIIF-3  (PRN 24)    
1 38833U 12053A   26095.52545655  .00000021  00000+0  00000+0 0  9996
2 38833  53.5703 146.5768 0177430  64.9866 296.9263  2.00566362 97988
GPS BIIF-4  (PRN 27)    
1 39166U 13023A   26090.90349851 -.00000034  00000+0  00000+0 0  9996
2 39166  54.5658 272.1198 0141962  50.3418 310.8851  2.00563989 94331
GPS BIIF-5  (PRN 30)    
1 39533U 14008A   26095.39069735  .00000020  00000+0  00000+0 0  9990
2 39533  53.6411 152.2899 0083297 229.4222 129.9278  2.00555200 88220
GPS BIIF-6  (PRN 06)    
1 39741U 14026A   26094.17145429 -.00000090  00000+0  00000+0 0  9999
2 39741  56.5319 334.4006 0039371 326.0604  33.7376  2.00566566 87054
